Name,Blood Group,Phone,District,Location,Postal Code,Donate,Request,Availability
Arif Hasan,A+,171000011,Dhaka,Dhaka Cantonment,1200,Y,N,Y
Zahid Hasan,A-,171000012,Dhaka,Dhaka Cantonment,1200,Y,N,Y
Rafique Uddin,B-,171000013,Dhaka,Dhaka Cantonment,1200,Y,N,Y
Afsana Mimi,O+,171000014,Dhaka,Dhamrai,1350,Y,N,Y
Akash Ahmed,B+,171000015,Dhaka,Dhamrai,1351,Y,N,Y
Al Imran,A-,171000016,Dhaka,Dhanmondi,1209,Y,N,Y
Ayan Khan,O-,171000017,Dhaka,Jigatala TSO,1209,Y,N,Y
Abdul Jabbar,AB+,171000018,Dhaka,Banani TSO,1213,Y,Y,Y
Abdul Fattah,O+,171000019,Dhaka,Badda,1212,Y,Y,Y
Abdul Alim,A+,171000020,Dhaka,Gulshan Model Town,1212,Y,Y,Y
Ashraf Siraji,AB-,171000021,Dhaka,Dhania TSO,1236,Y,Y,Y
Abdur Razzak,AB+,171000022,Dhaka,Meghula,1330,Y,Y,Y
Abdus Sobahan,B+,171000023,Dhaka,Joypara,1331,Y,N,Y
Ahad Ahmed,A+,171000024,Dhaka,Narisha,1332,Y,N,Y
Ahnaf Hasan,AB-,171000025,Dhaka,Palamganj,1331,Y,N,Y
Alifa Rafa,A+,171000026,Dhaka,Ati,1312,Y,N,Y
Amir Hossain,O+,171000027,Dhaka,Dhaka Jute Mills,1311,Y,N,Y
Arjun Roy,B-,171000028,Dhaka,Kalatia,1313,Y,N,Y
Billal Hossain,O+,171000029,Dhaka,Keraniganj,1310,Y,N,Y
Durjoy Mistry,AB+,171000030,Dhaka,KhilgaonTSO,1219,Y,N,Y
Diganta Ahmed,B+,171000031,Dhaka,KhilkhetTSO,1229,Y,N,Y
Dilruba Jahan,B-,171000032,Dhaka,Posta TSO,1211,Y,N,Y
Dilshad Pulok,B+,171000033,Dhaka,Mirpur TSO,1216,Y,N,Y
Emon Rahman,A-,171000034,Dhaka,Mohammadpur Housing,1207,Y,N,Y
Eshita Kabir,AB-,171000035,Dhaka,Sangsad BhabanTSO,1225,Y,Y,Y
Estaul Kabir,O-,171000036,Dhaka,BangabhabanTSO,1222,Y,Y,Y
Fahad Ahmed,A-,171000037,Dhaka,DilkushaTSO,1223,Y,Y,Y
Fahim Ahmed,A+,171000038,Dhaka,Agla,1323,Y,N,Y
Fazle Rabbi,B-,171000039,Dhaka,Churain,1325,Y,N,Y
Farhan Ahmed,AB+,171000040,Dhaka,Daudpur,1322,Y,N,Y
Faria Ulfath,B-,171000041,Dhaka,Hasnabad,1321,Y,N,Y
Forid Ahmed,O+,171000042,Dhaka,Khalpar,1324,Y,N,Y
Fariha Islam,B+,171000043,Dhaka,Nawabganj,1320,Y,N,Y
Farjana Laboni,B+,171000044,Dhaka,Kalabagan,1205,N,N,Y
Faruq Ahmed,AB-,171000045,Dhaka,Dhaka GPO,1000,Y,N,N
Fatin Abresham,A-,171000046,Dhaka,Shantinagr TSO,1217,Y,N,N
Faiyaj Nakib,A+,171000047,Dhaka,Basabo TSO,1214,Y,N,N
Foysal Ahmed,O-,171000048,Dhaka,Amin Bazar,1348,Y,N,N
Gobinda Mandal,A-,171000049,Dhaka,Dairy Farm,1341,Y,N,N
Golam Azam,B-,171000050,Dhaka,EPZ,1349,Y,N,Y
Habib Ahmed,B-,171000051,Dhaka,Jahangirnagar University,1342,Y,N,Y
Habibullah Sheikh,AB-,171000052,Dhaka,Kashem Cotton Mills,1346,Y,N,Y
Habibur Rahman,A+,171000053,Dhaka,Rajphulbaria,1347,Y,N,Y
Hanif Bhuiya,B+,171000054,Dhaka,Savar,1340,Y,N,Y
Haani Khan,A-,171000055,Dhaka,Savar Canttonment,1344,Y,N,Y
Harunor Rashid,AB+,171000056,Dhaka,Saver P.A.T.C,1343,Y,N,Y
Hasan Al Mamun,AB+,171000057,Dhaka,Shimulia,1345,Y,N,Y
Hasan Imam,B+,171000058,Dhaka,Dhaka Sadar HO,1100,Y,N,Y
Hasibuj Jaman,B+,171000059,Dhaka,Gandaria TSO,1204,Y,N,Y
Hasib Hasan,A-,171000060,Dhaka,Wari TSO,1203,Y,N,Y
Himu Ahmed,O+,171000061,Dhaka,Tejgaon TSO,1215,Y,N,Y
Hasan Himu,AB-,171000062,Dhaka,Dhaka Politechnic,1208,Y,N,Y
HM Abdul Wahab,O+,171000063,Dhaka,Uttara Model TownTSO,1230,Y,N,Y
Hossainul Abrar,A+,171000064,Dhaka,Uttara Model TownTSO,1230,Y,N,Y
Ihtisham Qabid,O+,171000065,Dhaka,Dhaka Cantonment,1200,Y,N,Y
Imran Emon,A+,171000066,Dhaka,Dhamrai,1350,Y,N,N
Imtiaz Ahmed,B+,171000067,Dhaka,Dhamrai,1350,Y,N,N
Iqbal Hasan,A+,171000068,Dhaka,Dhanmondi,1209,Y,Y,N
Israt Jahan,B+,171000069,Dhaka,Jigatala TSO,1209,Y,Y,N
Jaahid Hasan,B-,171000070,Dhaka,Banani TSO,1213,Y,Y,N
Jahirul Islam,AB+,171000071,Dhaka,Badda,1212,Y,Y,N
Jakir Hossain,O+,171000072,Dhaka,Gulshan Model Town,1212,Y,N,Y
Jannatul Ferdous,O+,171000073,Dhaka,Dhania TSO,1236,Y,N,Y
Jannatul Islam,A-,171000074,Dhaka,Meghula,1330,Y,N,Y
Jannatul Nayem,AB-,171000075,Dhaka,Joypara,1331,Y,N,Y
Jarin Tasnim,A-,171000076,Dhaka,Narisha,1321,Y,N,Y
Javed Kawsar,A+,171000077,Dhaka,Palamganj,1331,Y,N,Y
Jihad Islam,AB+,171000078,Dhaka,Ati,1312,Y,N,Y
Jewel Islam,B+,171000079,Dhaka,Dhaka Jute Mills,1311,Y,N,Y
Jisan Kibria,B+,171000080,Dhaka,Kalatia,1313,Y,N,Y
Joy Ghosh,O+,171000081,Dhaka,Keraniganj,1310,Y,N,Y
Jyoti Tithi,B-,171000082,Dhaka,KhilgaonTSO,1219,N,N,Y
Khairun Nahar,A-,171000083,Dhaka,KhilkhetTSO,1229,Y,N,Y
Kalpona Islam,B+,171000084,Dhaka,Posta TSO,1211,Y,N,Y
Kaniz Fatema,A+,171000085,Dhaka,Mirpur TSO,1216,Y,N,Y
Kawsar Ahmed,O+,171000086,Dhaka,Mohammadpur Housing,1207,Y,N,Y
Kazi Maruf,O-,171000087,Dhaka,Sangsad BhabanTSO,1225,Y,N,Y
Kazi Istiak,B+,171000088,Dhaka,BangabhabanTSO,1222,Y,N,Y
Khadijatul Kubra,AB+,171000089,Dhaka,DilkushaTSO,1223,Y,N,Y
Khalid Prodhan,A+,171000090,Dhaka,Agla,1323,Y,N,Y
Khalid Hasan,O-,171000091,Dhaka,Churain,1325,Y,N,Y
Khaibar Hossain,AB+,171000092,Dhaka,Daudpur,1322,Y,N,Y
Lemon Rahman,B+,171000093,Dhaka,Hasnabad,1321,Y,N,Y
Lubon Ahmed,O-,171000094,Dhaka,Khalpar,1324,Y,N,Y
Lutfur Rahman,A-,171000095,Dhaka,Nawabganj,1320,Y,N,Y
MD Hasan,B+,171000096,Dhaka,Kalabagan,1205,Y,N,Y
MD Minhaz,A+,171000097,Dhaka,Dhaka GPO,1000,Y,N,Y
MD Niloy,AB-,171000098,Dhaka,Shantinagr TSO,1217,Y,N,Y
MD Sharif,B+,171000099,Dhaka,Basabo TSO,1214,Y,N,Y
Madhuri Chakraborty,O-,171000100,Dhaka,Amin Bazar,1348,Y,N,Y
Mehedi Hasan,AB+,171000101,Dhaka,Dairy Farm,1341,Y,N,Y
Mahi Rahman,A+,171000102,Dhaka,EPZ,1349,N,N,Y
Maisha Islam,B+,171000103,Dhaka,Jahangirnagar University,1342,Y,Y,Y
Maliha Mumtaz,O+,171000104,Dhaka,Kashem Cotton Mills,1346,Y,Y,Y
Masud Ahmed,O+,171000105,Dhaka,Rajphulbaria,1347,Y,N,Y
Minhajul Islam,AB+,171000106,Dhaka,Savar,1340,Y,N,Y
Mostain Billah,A-,171000107,Dhaka,Savar Canttonment,1344,Y,N,N
Musfika Rifa,B+,171000108,Dhaka,Saver P.A.T.C,1343,Y,N,N
Mushfiq Hasan,O-,171000109,Dhaka,Shimulia,1345,Y,N,N
Nayem Ferdous,AB+,171000110,Dhaka,Dhaka Sadar HO,1100,Y,N,Y
Naina Kabir,B+,171000111,Dhaka,Gandaria TSO,1204,Y,N,Y
Nayema Rahman,B+,171000112,Dhaka,Wari TSO,1203,Y,N,Y
Niamul Hasan,AB-,171000113,Dhaka,Tejgaon TSO,1215,Y,N,Y
Noman Ahmed,O+,171000114,Dhaka,Dhaka Politechnic,1208,Y,N,Y
Osman Goni,AB+,171000115,Dhaka,Amin Bazar,1348,Y,N,Y
Rahmanul Karim,B-,171000116,Dhaka,Dairy Farm,1341,Y,N,Y
Rafat Meraz,A+,171000117,Dhaka,EPZ,1349,Y,N,Y
Rashik Rahman,O+,171000118,Dhaka,Jahangirnagar University,1342,Y,N,Y
Mehedi Ul Hasnain,B+,171000119,Dhaka,Kashem Cotton Mills,1346,S,Y,Y
